OBJECT_NAME,OBJECT_ID,EPOCH,MEAN_MOTION,ECCENTRICITY,INCLINATION,RA_OF_ASC_NODE,ARG_OF_PERICENTER,MEAN_ANOMALY,EPHEMERIS_TYPE,CLASSIFICATION_TYPE,NORAD_CAT_ID,ELEMENT_SET_NO,REV_AT_EPOCH,BSTAR,MEAN_MOTION_DOT,MEAN_MOTION_DDOT
KUIPER-00622,2026-151S,2026-07-20T10:57:01.499904,15.36997908,.00069292,51.8742,154.9968,163.8870,196.2338,0,U,69779,999,282,.32788264E-3,.11687E-3,0
KUIPER-00623,2026-151T,2026-07-17T06:22:24.548160,15.37672053,.0006129,51.8777,170.3650,146.6000,213.5375,0,U,69780,999,233,.3498E-2,.133416E-2,0
KUIPER-00626,2026-151U,2026-07-20T08:12:20.067552,15.34651575,.00101513,51.8725,155.7243,181.2139,178.8824,0,U,69781,999,280,.56296589E-3,.18886E-3,0
KUIPER-00627,2026-151V,2026-07-20T14:00:01.999872,15.34343548,.00107511,51.8702,154.5887,189.6021,50.4700,0,U,69782,999,130,-.58477807E-3,-.20111E-3,0
KUIPER-00629,2026-151W,2026-07-20T14:00:01.999872,15.27773161,.00065079,51.8804,154.6236,176.7647,67.6732,0,U,69783,999,316,-.1094899E-2,-.30376E-3,0
KUIPER-00631,2026-151X,2026-07-20T14:00:01.999872,15.29705284,.00080447,51.8765,154.5907,177.8924,71.8188,0,U,69784,999,130,-.44745248E-1,-.1188304E-1,0
KUIPER-00634,2026-151Y,2026-07-20T07:37:05.716128,15.37817373,.00036212,51.8776,155.5703,151.7907,208.3277,0,U,69785,999,280,.23109544E-3,.834E-4,0
KUIPER-00639,2026-151Z,2026-07-20T14:00:01.999872,15.34507602,.00097856,51.8698,154.5231,178.2785,94.0202,0,U,69786,999,200,-.66378199E-3,-.22878E-3,0
KUIPER-00641,2026-151AA,2026-07-20T14:00:01.999872,15.34158075,.00120426,51.8685,154.6054,182.7837,48.1810,0,U,69787,999,347,-.49590317E-3,-.1703E-3,0
KUIPER-00644,2026-151AB,2026-07-20T14:00:01.999872,15.36575577,.00081335,51.8748,154.4441,177.5872,136.0559,0,U,69788,999,377,-.49291345E-3,-.18242E-3,0
KUIPER-00646,2026-151AC,2026-07-20T11:12:45.500256,15.35327174,.00096032,51.8709,155.0634,181.7637,178.3317,0,U,69789,999,282,-.28536139E-3,-.1033E-3,0
KUIPER-00647,2026-151AD,2026-07-20T08:13:25.186368,15.34660350,.00108559,51.8668,155.7236,183.9982,176.0918,0,U,69790,999,280,-.18076063E-4,-.1003E-4,0
KUIPER-00662,2026-151AE,2026-07-20T11:04:48.360576,15.36563789,.00081313,51.8747,155.0318,177.1532,182.9502,0,U,69791,999,282,.28492343E-3,.996E-4,0
LINK,2026-152A,2026-07-20T09:39:26.591040,15.68187366,.0023629,20.5937,287.2749,64.9412,295.3485,0,U,69792,999,267,.64773796E-3,.785E-3,0
ISS OBJECT YJ,1998-067YJ,2026-07-20T12:43:13.810944,15.50241900,.00077226,51.6314,134.9682,330.2627,29.7922,0,U,69794,999,282,.37192626E-3,.21027E-3,0
ISS OBJECT YK,1998-067YK,2026-07-20T04:50:09.163680,15.51059856,.00065344,51.6312,136.5254,336.2980,23.7708,0,U,69795,999,277,.59757263E-3,.35131E-3,0
ISS OBJECT YL,1998-067YL,2026-07-20T12:36:47.562336,15.50765437,.00085941,51.6316,134.9389,331.0854,28.9658,0,U,69796,999,281,.49852731E-3,.28917E-3,0
ISS OBJECT YM,1998-067YM,2026-07-19T02:34:42.199104,15.50730438,.00095402,51.6313,141.9694,317.3157,42.7090,0,U,69797,999,258,.48640602E-3,.28173E-3,0
ISS OBJECT YN,1998-067YN,2026-07-20T12:38:26.990592,15.50509087,.00091388,51.6317,134.9466,334.2509,25.8024,0,U,69798,999,282,.34427759E-3,.19623E-3,0
PROVES-ELECTRA,1998-067YP,2026-07-20T12:36:08.903520,15.50798649,.00096527,51.6313,134.9353,322.1156,37.9153,0,U,69799,999,281,.48693176E-3,.28275E-3,0
QIANFAN-201,2026-153A,2026-07-20T12:12:51.812928,14.18284885,.00047976,88.9923,358.4347,169.9283,190.2003,0,U,69800,999,230,-.91777307E+0,-.174544E-1,0
QIANFAN-202,2026-153B,2026-07-20T12:58:41.289024,14.15062697,.00076624,88.9922,358.4396,179.5682,180.5513,0,U,69801,999,230,-.10628307E+1,-.1914364E-1,0
QIANFAN-203,2026-153C,2026-07-20T12:43:56.635104,14.15207844,.00097581,88.9924,358.4381,176.6315,183.4939,0,U,69802,999,230,-.97852551E+0,-.1757346E-1,0
QIANFAN-204,2026-153D,2026-07-20T14:31:08.421312,14.16179900,.00115873,88.9923,358.4308,183.9744,176.1354,0,U,69803,999,231,-.1027663E+1,-.1892011E-1,0
QIANFAN-205,2026-153E,2026-07-20T11:03:06.024960,14.15921881,.00112217,88.9919,358.4462,188.8227,171.2765,0,U,69804,999,229,-.10599141E+1,-.193857E-1,0
QIANFAN-206,2026-153F,2026-07-20T12:25:52.197600,14.17633068,.00093912,88.9924,358.4355,203.8046,156.2709,0,U,69805,999,230,-.99884419E+0,-.1889104E-1,0
QIANFAN-207,2026-153G,2026-07-20T12:22:09.086016,14.18628628,.00085926,88.9922,358.4358,200.2443,159.8407,0,U,69806,999,230,-.10002655E+1,-.1924526E-1,0
QIANFAN-208,2026-153H,2026-07-20T12:13:54.839136,14.19892027,.00063561,88.9926,358.4363,184.4880,175.6254,0,U,69807,999,230,-.91868192E+0,-.1817036E-1,0
QIANFAN-209,2026-153J,2026-07-20T10:47:17.499840,14.17223236,.00120952,88.9920,358.4440,190.6807,169.4127,0,U,69808,999,229,-.10192138E+1,-.1911862E-1,0
