KUIPER-00622            
1 69779U 26151S   26201.45626736  .00011687  00000+0  32788-3 0  9996
2 69779  51.8742 154.9968 0006929 163.8870 196.2338 15.36997908  2829
KUIPER-00623            
1 69780U 26151T   26198.26556190  .00133416  00000+0  34980-2 0  9998
2 69780  51.8777 170.3650 0006129 146.6000 213.5375 15.37672053  2337
KUIPER-00626            
1 69781U 26151U   26201.34189893  .00018886  00000+0  56297-3 0  9994
2 69781  51.8725 155.7243 0010151 181.2139 178.8824 15.34651575  2801
KUIPER-00627            
1 69782U 26151V   26201.58335648 -.00020111  00000+0 -58478-3 0  9991
2 69782  51.8702 154.5887 0010751 189.6021  50.4700 15.34343548  1306
KUIPER-00629            
1 69783U 26151W   26201.58335648 -.00030376  00000+0 -10949-2 0  9996
2 69783  51.8804 154.6236 0006507 176.7647  67.6732 15.27773161  3165
KUIPER-00631            
1 69784U 26151X   26201.58335648 -.01188304  00000+0 -44745-1 0  9993
2 69784  51.8765 154.5907 0008044 177.8924  71.8188 15.29705284  1303
KUIPER-00634            
1 69785U 26151Y   26201.31742727  .00008340  00000+0  23110-3 0  9998
2 69785  51.8776 155.5703 0003621 151.7907 208.3277 15.37817373  2803
KUIPER-00639            
1 69786U 26151Z   26201.58335648 -.00022878  00000+0 -66378-3 0  9995
2 69786  51.8698 154.5231 0009785 178.2785  94.0202 15.34507602  2005
KUIPER-00641            
1 69787U 26151AA  26201.58335648 -.00017030  00000+0 -49590-3 0  9997
2 69787  51.8685 154.6054 0012042 182.7837  48.1810 15.34158075  3477
KUIPER-00644            
1 69788U 26151AB  26201.58335648 -.00018242  00000+0 -49291-3 0  9992
2 69788  51.8748 154.4441 0008133 177.5872 136.0559 15.36575577  3775
KUIPER-00646            
1 69789U 26151AC  26201.46719329 -.00010330  00000+0 -28536-3 0  9991
2 69789  51.8709 155.0634 0009603 181.7637 178.3317 15.35327174  2826
KUIPER-00647            
1 69790U 26151AD  26201.34265262 -.00001003  00000+0 -18076-4 0  9998
2 69790  51.8668 155.7236 0010855 183.9982 176.0918 15.34660350  2800
KUIPER-00662            
1 69791U 26151AE  26201.46167084  .00009960  00000+0  28492-3 0  9995
2 69791  51.8747 155.0318 0008131 177.1532 182.9502 15.36563789  2820
LINK                    
1 69792U 26152A   26201.40239110  .00078500  00000+0  64774-3 0  9990
2 69792  20.5937 287.2749 0023629  64.9412 295.3485 15.68187366  2670
ISS OBJECT YJ           
1 69794U 98067YJ  26201.53002096  .00021027  00000+0  37193-3 0  9998
2 69794  51.6314 134.9682 0007722 330.2627  29.7922 15.50241900  2821
ISS OBJECT YK           
1 69795U 98067YK  26201.20149495  .00035131  00000+0  59757-3 0  9999
2 69795  51.6312 136.5254 0006534 336.2980  23.7708 15.51059856  2779
ISS OBJECT YL           
1 69796U 98067YL  26201.52555049  .00028917  00000+0  49853-3 0  9991
2 69796  51.6316 134.9389 0008594 331.0854  28.9658 15.50765437  2810
ISS OBJECT YM           
1 69797U 98067YM  26200.10743286  .00028173  00000+0  48641-3 0  9995
2 69797  51.6313 141.9694 0009540 317.3157  42.7090 15.50730438  2581
ISS OBJECT YN           
1 69798U 98067YN  26201.52670128  .00019623  00000+0  34428-3 0  9995
2 69798  51.6317 134.9466 0009138 334.2509  25.8024 15.50509087  2827
PROVES-ELECTRA          
1 69799U 98067YP  26201.52510305  .00028275  00000+0  48693-3 0  9998
2 69799  51.6313 134.9353 0009652 322.1156  37.9153 15.50798649  2814
QIANFAN-201             
1 69800U 26153A   26201.50893302 -.01745440  00000+0 -91777+0 0  9997
2 69800  88.9923 358.4347 0004797 169.9283 190.2003 14.18284885  2302
QIANFAN-202             
1 69801U 26153B   26201.54075566 -.01914364  00000+0 -10628+1 0  9996
2 69801  88.9922 358.4396 0007662 179.5682 180.5513 14.15062697  2300
QIANFAN-203             
1 69802U 26153C   26201.53051661 -.01757346  00000+0 -97853+0 0  9995
2 69802  88.9924 358.4381 0009758 176.6315 183.4939 14.15207844  2305
QIANFAN-204             
1 69803U 26153D   26201.60495858 -.01892011  00000+0 -10277+1 0  9999
2 69803  88.9923 358.4308 0011587 183.9744 176.1354 14.16179900  2317
QIANFAN-205             
1 69804U 26153E   26201.46048640 -.01938570  00000+0 -10599+1 0  9995
2 69804  88.9919 358.4462 0011221 188.8227 171.2765 14.15921881  2290
QIANFAN-206             
1 69805U 26153F   26201.51796525 -.01889104  00000+0 -99884+0 0  9995
2 69805  88.9924 358.4355 0009391 203.8046 156.2709 14.17633068  2302
QIANFAN-207             
1 69806U 26153G   26201.51538294 -.01924526  00000+0 -10003+1 0  9998
2 69806  88.9922 358.4358 0008592 200.2443 159.8407 14.18628628  2309
QIANFAN-208             
1 69807U 26153H   26201.50966249 -.01817036  00000+0 -91868+0 0  9997
2 69807  88.9926 358.4363 0006356 184.4880 175.6254 14.19892027  2307
QIANFAN-209             
1 69808U 26153J   26201.44950810 -.01911862  00000+0 -10192+1 0  9992
2 69808  88.9920 358.4440 0012095 190.6807 169.4127 14.17223236  2299
